{
  "type": "FeatureCollection",
  "features": [
    {
      "type": "Feature",
      "properties": {
        "norad_id": 66814,
        "name": "STARLINK-35984",
        "group": "last-30-days",
        "lat": -37.85011954226657,
        "lon": 166.65612194724125,
        "alt_km": 346.4792844792546,
        "timestamp": "2025-12-17T10:52:53.100771+00:00",
        "meta_object_name": "STARLINK-35984",
        "meta_object_id": "2025-278Z",
        "meta_epoch": "2025-12-16T22:00:03.000096",
        "meta_mean_motion": 15.75021237,
        "meta_eccentricity": 0.00018869,
        "meta_inclination": 42.9986,
        "meta_ra_of_asc_node": 226.4215,
        "meta_arg_of_pericenter": 269.7272,
        "meta_mean_anomaly": 219.3159,
        "meta_ephemeris_type": 0,
        "meta_classification_type": "U",
        "meta_norad_cat_id": 66814,
        "meta_element_set_no": 999,
        "meta_rev_at_epoch": 371,
        "meta_bstar": 0.00010763925,
        "meta_mean_motion_dot": 0.00016076,
        "meta_mean_motion_ddot": 0,
        "tle_line1": "1 66814U 25278Z   25350.91670139  .00016076  00000+0  10764-3 0  9990",
        "tle_line2": "2 66814  42.9986 226.4215 0001886 269.7272 219.3159 15.75021237  3719"
      },
      "geometry": {
        "type": "Point",
        "coordinates": [
          166.65612194724125,
          -37.85011954226657
        ]
      }
    },
    {
      "type": "Feature",
      "properties": {
        "norad_id": 66815,
        "name": "STARLINK-35985",
        "group": "last-30-days",
        "lat": -38.55172439708187,
        "lon": 164.38205211988802,
        "alt_km": 346.5576486820455,
        "timestamp": "2025-12-17T10:52:53.100783+00:00",
        "meta_object_name": "STARLINK-35985",
        "meta_object_id": "2025-278AA",
        "meta_epoch": "2025-12-16T22:00:03.000096",
        "meta_mean_motion": 15.75029854,
        "meta_eccentricity": 0.00018523,
        "meta_inclination": 42.9987,
        "meta_ra_of_asc_node": 226.4258,
        "meta_arg_of_pericenter": 269.5142,
        "meta_mean_anomaly": 217.6095,
        "meta_ephemeris_type": 0,
        "meta_classification_type": "U",
        "meta_norad_cat_id": 66815,
        "meta_element_set_no": 999,
        "meta_rev_at_epoch": 371,
        "meta_bstar": -3.2330092e-05,
        "meta_mean_motion_dot": -5.439e-05,
        "meta_mean_motion_ddot": 0,
        "tle_line1": "1 66815U 25278AA  25350.91670139 -.00005439  00000+0 -32330-4 0  9998",
        "tle_line2": "2 66815  42.9987 226.4258 0001852 269.5142 217.6095 15.75029854  3718"
      },
      "geometry": {
        "type": "Point",
        "coordinates": [
          164.38205211988802,
          -38.55172439708187
        ]
      }
    },
    {
      "type": "Feature",
      "properties": {
        "norad_id": 66816,
        "name": "STARLINK-36098",
        "group": "last-30-days",
        "lat": -40.87857563308941,
        "lon": 154.91865799115692,
        "alt_km": 346.7586904890559,
        "timestamp": "2025-12-17T10:52:53.100794+00:00",
        "meta_object_name": "STARLINK-36098",
        "meta_object_id": "2025-278AB",
        "meta_epoch": "2025-12-16T22:00:03.000096",
        "meta_mean_motion": 15.75028037,
        "meta_eccentricity": 0.00015064,
        "meta_inclination": 42.9985,
        "meta_ra_of_asc_node": 226.4458,
        "meta_arg_of_pericenter": 277.6984,
        "meta_mean_anomaly": 201.7484,
        "meta_ephemeris_type": 0,
        "meta_classification_type": "U",
        "meta_norad_cat_id": 66816,
        "meta_element_set_no": 999,
        "meta_rev_at_epoch": 347,
        "meta_bstar": 0.00010943751,
        "meta_mean_motion_dot": 0.00016357,
        "meta_mean_motion_ddot": 0,
        "tle_line1": "1 66816U 25278AB  25350.91670139  .00016357  00000+0  10944-3 0  9994",
        "tle_line2": "2 66816  42.9985 226.4458 0001506 277.6984 201.7484 15.75028037  3470"
      },
      "geometry": {
        "type": "Point",
        "coordinates": [
          154.91865799115692,
          -40.87857563308941
        ]
      }
    },
    {
      "type": "Feature",
      "properties": {
        "norad_id": 66817,
        "name": "STARLINK-35995",
        "group": "last-30-days",
        "lat": -39.81952833168543,
        "lon": 159.69823069699274,
        "alt_km": 345.94177557191506,
        "timestamp": "2025-12-17T10:52:53.100804+00:00",
        "meta_object_name": "STARLINK-35995",
        "meta_object_id": "2025-278AC",
        "meta_epoch": "2025-12-16T22:00:03.000096",
        "meta_mean_motion": 15.7499658,
        "meta_eccentricity": 0.00023786,
        "meta_inclination": 42.9985,
        "meta_ra_of_asc_node": 226.4359,
        "meta_arg_of_pericenter": 280.5137,
        "meta_mean_anomaly": 202.6982,
        "meta_ephemeris_type": 0,
        "meta_classification_type": "U",
        "meta_norad_cat_id": 66817,
        "meta_element_set_no": 999,
        "meta_rev_at_epoch": 363,
        "meta_bstar": 0.00073990394,
        "meta_mean_motion_dot": 0.00114527,
        "meta_mean_motion_ddot": 0,
        "tle_line1": "1 66817U 25278AC  25350.91670139  .00114527  00000+0  73990-3 0  9993",
        "tle_line2": "2 66817  42.9985 226.4359 0002378 280.5137 202.6982 15.74996580  3639"
      },
      "geometry": {
        "type": "Point",
        "coordinates": [
          159.69823069699274,
          -39.81952833168543
        ]
      }
    },
    {
      "type": "Feature",
      "properties": {
        "norad_id": 66818,
        "name": "STARLINK-35994",
        "group": "last-30-days",
        "lat": -40.37011793126494,
        "lon": 157.34437357945194,
        "alt_km": 346.7500221514065,
        "timestamp": "2025-12-17T10:52:53.100814+00:00",
        "meta_object_name": "STARLINK-35994",
        "meta_object_id": "2025-278AD",
        "meta_epoch": "2025-12-16T22:00:03.000096",
        "meta_mean_motion": 15.75035836,
        "meta_eccentricity": 0.00016125,
        "meta_inclination": 42.9986,
        "meta_ra_of_asc_node": 226.441,
        "meta_arg_of_pericenter": 269.4309,
        "meta_mean_anomaly": 211.94,
        "meta_ephemeris_type": 0,
        "meta_classification_type": "U",
        "meta_norad_cat_id": 66818,
        "meta_element_set_no": 999,
        "meta_rev_at_epoch": 363,
        "meta_bstar": -5.4584284e-05,
        "meta_mean_motion_dot": -8.852e-05,
        "meta_mean_motion_ddot": 0,
        "tle_line1": "1 66818U 25278AD  25350.91670139 -.00008852  00000+0 -54584-4 0  9998",
        "tle_line2": "2 66818  42.9986 226.4410 0001612 269.4309 211.9400 15.75035836  3633"
      },
      "geometry": {
        "type": "Point",
        "coordinates": [
          157.34437357945194,
          -40.37011793126494
        ]
      }
    },
    {
      "type": "Feature",
      "properties": {
        "norad_id": 66819,
        "name": "STARLINK-35989",
        "group": "last-30-days",
        "lat": -39.20487826462359,
        "lon": 162.07681936165895,
        "alt_km": 346.7043681903615,
        "timestamp": "2025-12-17T10:52:53.100824+00:00",
        "meta_object_name": "STARLINK-35989",
        "meta_object_id": "2025-278AE",
        "meta_epoch": "2025-12-16T22:00:03.000096",
        "meta_mean_motion": 15.75123444,
        "meta_eccentricity": 0.00019507,
        "meta_inclination": 42.9985,
        "meta_ra_of_asc_node": 226.4308,
        "meta_arg_of_pericenter": 267.7581,
        "meta_mean_anomaly": 217.4274,
        "meta_ephemeris_type": 0,
        "meta_classification_type": "U",
        "meta_norad_cat_id": 66819,
        "meta_element_set_no": 999,
        "meta_rev_at_epoch": 363,
        "meta_bstar": -0.0010335371,
        "meta_mean_motion_dot": -0.00156912,
        "meta_mean_motion_ddot": 0,
        "tle_line1": "1 66819U 25278AE  25350.91670139 -.00156912  00000+0 -10335-2 0  9994",
        "tle_line2": "2 66819  42.9985 226.4308 0001950 267.7581 217.4274 15.75123444  3630"
      },
      "geometry": {
        "type": "Point",
        "coordinates": [
          162.07681936165895,
          -39.20487826462359
        ]
      }
    },
    {
      "type": "Feature",
      "properties": {
        "norad_id": 66820,
        "name": "KOMPSAT-7",
        "group": "last-30-days",
        "lat": -25.552669977028053,
        "lon": 113.54687050679009,
        "alt_km": 569.6573125847044,
        "timestamp": "2025-12-17T10:52:53.100836+00:00",
        "meta_object_name": "KOMPSAT-7",
        "meta_object_id": "2025-279A",
        "meta_epoch": "2025-12-14T22:41:19.689792",
        "meta_mean_motion": 14.98965885,
        "meta_eccentricity": 0.00087651,
        "meta_inclination": 97.6417,
        "meta_ra_of_asc_node": 294.7686,
        "meta_arg_of_pericenter": 217.2843,
        "meta_mean_anomaly": 142.7773,
        "meta_ephemeris_type": 0,
        "meta_classification_type": "U",
        "meta_norad_cat_id": 66820,
        "meta_element_set_no": 999,
        "meta_rev_at_epoch": 198,
        "meta_bstar": 0.00023616624,
        "meta_mean_motion_dot": 2.802e-05,
        "meta_mean_motion_ddot": 0,
        "tle_line1": "1 66820U 25279A   25348.94536678  .00002802  00000+0  23617-3 0  9990",
        "tle_line2": "2 66820  97.6417 294.7686 0008765 217.2843 142.7773 14.98965885  1985"
      },
      "geometry": {
        "type": "Point",
        "coordinates": [
          113.54687050679009,
          -25.552669977028053
        ]
      }
    }
  ]
}